ONEWEB-0427             
1 50499U 21132AG  24232.39633338  .00000071  00000+0  14733-3 0  9995
2 50499  87.9101 108.1939 0002047  79.3851 280.7511 13.18684551133735
ONEWEB-0429             
1 50500U 21132AH  24232.15605394  .00000056  00000+0  11029-3 0  9991
2 50500  87.9110 108.2513 0001612  77.9638 282.1675 13.18683263133670
ONEWEB-0430             
1 50501U 21132AJ  24232.60024357  .00000108  00000+0  24095-3 0  9991
2 50501  87.9103 108.1656 0001637  92.4882 267.6437 13.18688396133777
ONEWEB-0432             
1 50502U 21132AK  24232.40423766  .00000120  00000+0  27037-3 0  9990
2 50502  87.9103 108.1965 0002022  91.8590 268.2773 13.18684147133702
ONEWEB-0440             
1 50503U 21132AL  24232.61922117  .00000040  00000+0  67522-4 0  9993
2 50503  87.9106 108.1440 0001617  60.9503 299.1791 13.18684500133722
ONEWEB-0450             
1 50504U 21132AM  24232.38540311  .00000185  00000+0  43590-3 0  9998
2 50504  87.9107 108.2193 0001419  85.7214 274.4080 13.18687552133721
ONEWEB-0410             
1 51622U 22012A   24232.49759918  .00000150  00000+0  35267-3 0  9999
2 51622  87.9178 138.6269 0003618  65.9398 294.2112 13.17647260125906
ONEWEB-0411             
1 51623U 22012B   24232.87020175  .00004976  00000+0  14213-1 0  9994
2 51623  87.9001 168.8152 0001926  93.1150 267.0197 13.10356430123309
